PLEIADES 1A             
1 38012U 11076F   26188.85738245  .00000041  00000+0  18634-4 0  9996
2 38012  98.1966 263.6822 0001738  82.5790  51.9706 14.58543868775003
PLEIADES 1B             
1 39019U 12068A   26188.86567657  .00000178  00000+0  48096-4 0  9990
2 39019  98.1936 263.6325 0001631  81.5763 278.5622 14.58573835723865
